NORAD_CAT_ID,OBJECT_NAME,OBJECT_TYPE,EPOCH,MEAN_MOTION,ECCENTRICITY,INCLINATION,RA_OF_ASC_NODE,ARG_OF_PERICENTER,MEAN_ANOMALY,BSTAR,MEAN_MOTION_DOT,MEAN_MOTION_DDOT,TLE_LINE0,TLE_LINE1,TLE_LINE2,SEMIMAJOR_AXIS,PERIOD,APOGEE,PERIGEE,DECAYED
53852.0,STARLINK-4797,PAYLOAD,2023-10-18 02:54:39,15.0884683,0.0001513,53.2161,250.6487,111.0136,249.1018,0.00033811,5.098e-05,0.0,0 STARLINK-4797,1 53852U 22114AL  23291.12129417  .00005098  00000-0  33811-3 0  9998,2 53852  53.2161 250.6487 0001513 111.0136 249.1018 15.08846830 61160,6917.86,95.437,540.771,538.678,0.0
53852.0,STARLINK-4797,PAYLOAD,2023-10-18 04:30:02,15.08847409,0.0001337,53.216,250.3533,104.4486,255.6654,0.00032574,4.901e-05,0.0,0 STARLINK-4797,1 53852U 22114AL  23291.18753407  .00004901  00000-0  32574-3 0  9993,2 53852  53.2160 250.3533 0001337 104.4486 255.6654 15.08847409 60638,6917.858,95.437,540.648,538.798,0.0
53852.0,STARLINK-4797,PAYLOAD,2023-10-18 14:02:21,15.08845962,0.0001105,53.2164,248.5671,92.5271,267.5848,0.00063887,9.896e-05,0.0,0 STARLINK-4797,1 53852U 22114AL  23291.58497327  .00009896  00000-0  63887-3 0  9992,2 53852  53.2164 248.5671 0001105  92.5271 267.5848 15.08845962 61232,6917.862,95.437,540.492,538.963,0.0
53852.0,STARLINK-4797,PAYLOAD,2023-10-19 02:45:26,15.08851973,0.0001533,53.217,246.1892,100.7648,259.3517,0.00099053,0.00015517,0.0,0 STARLINK-4797,1 53852U 22114AL  23292.11489445  .00015517  00000-0  99053-3 0  9995,2 53852  53.2170 246.1892 0001533 100.7648 259.3517 15.08851973 60772,6917.844,95.437,540.769,538.648,0.0
53852.0,STARLINK-4797,PAYLOAD,2023-10-19 05:56:12,15.08857161,0.0001455,53.217,245.5946,98.3503,261.7655,0.0009816,0.00015376,0.0,0 STARLINK-4797,1 53852U 22114AL  23292.24737266  .00015376  00000-0  98160-3 0  9997,2 53852  53.2170 245.5946 0001455  98.3503 261.7655 15.08857161 61338,6917.828,95.436,540.699,538.686,0.0
53852.0,STARLINK-4797,PAYLOAD,2023-10-20 04:11:37,15.08845819,0.0001379,53.2161,241.4321,102.7614,257.3532,0.00033362,5.026e-05,0.0,0 STARLINK-4797,1 53852U 22114AL  23293.17473432  .00005026  00000-0  33362-3 0  9996,2 53852  53.2161 241.4321 0001379 102.7614 257.3532 15.08845819 60935,6917.863,95.437,540.682,538.774,0.0
53852.0,STARLINK-4797,PAYLOAD,2023-10-20 05:47:00,15.0885054,0.0001376,53.2161,241.1342,97.5874,262.5275,0.00057701,8.91e-05,0.0,0 STARLINK-4797,1 53852U 22114AL  23293.24097369  .00008910  00000-0  57701-3 0  9993,2 53852  53.2161 241.1342 0001376  97.5874 262.5275 15.08850540 61481,6917.848,95.437,540.665,538.761,0.0
53852.0,STARLINK-4797,PAYLOAD,2023-10-20 20:05:29,15.08828079,0.0001327,53.2175,238.461,94.8459,265.2685,0.00041876,6.381e-05,0.0,0 STARLINK-4797,1 53852U 22114AL  23293.83714145  .00006381  00000-0  41876-3 0  9992,2 53852  53.2175 238.4610 0001327  94.8459 265.2685 15.08828079 61036,6917.917,95.438,540.7,538.864,0.0
53852.0,STARLINK-4797,PAYLOAD,2023-10-21 13:34:43,15.08843306,0.0001551,53.2168,235.1877,96.3485,263.7683,0.000684,0.00010616,0.0,0 STARLINK-4797,1 53852U 22114AL  23294.56578376  .00010616  00000-0  68400-3 0  9995,2 53852  53.2168 235.1877 0001551  96.3485 263.7683 15.08843306 61684,6917.87,95.437,540.808,538.662,0.0
53852.0,STARLINK-4797,PAYLOAD,2023-10-22 02:17:47,15.08866434,0.0001292,53.2152,232.807,103.5906,256.523,0.00086307,0.00013484,0.0,0 STARLINK-4797,1 53852U 22114AL  23295.09569389  .00013484  00000-0  86307-3 0  9990,2 53852  53.2152 232.8070 0001292 103.5906 256.5230 15.08866434 61222,6917.8,95.436,540.558,538.771,0.0
53852.0,STARLINK-4797,PAYLOAD,2023-10-22 13:25:30,15.08837286,0.0002213,53.2171,230.7269,85.1866,274.9379,-0.00027069,-4.594e-05,0.0,0 STARLINK-4797,1 53852U 22114AL  23295.55938019 -.00004594  00000-0 -27069-3 0  9995,2 53852  53.2171 230.7269 0002213  85.1866 274.9379 15.08837286 61832,6917.889,95.438,541.285,538.223,0.0
53852.0,STARLINK-4797,PAYLOAD,2023-10-22 22:57:49,15.08831136,0.0001982,53.2176,228.9408,99.8287,260.2929,-0.00013535,-2.441e-05,0.0,0 STARLINK-4797,1 53852U 22114AL  23295.95682217 -.00002441  00000-0 -13535-3 0  9997,2 53852  53.2176 228.9408 0001982  99.8287 260.2929 15.08831136 61895,6917.907,95.438,541.144,538.401,0.0
53852.0,STARLINK-4797,PAYLOAD,2023-10-23 02:08:36,15.0882654,0.0001761,53.217,228.3476,92.175,267.9444,-0.00024402,-4.168e-05,0.0,0 STARLINK-4797,1 53852U 22114AL  23296.08930694 -.00004168  00000-0 -24402-3 0  9990,2 53852  53.2170 228.3476 0001761  92.1750 267.9444 15.08826540 61376,6917.922,95.438,541.005,538.568,0.0
53852.0,STARLINK-4797,PAYLOAD,2023-10-23 22:48:36,15.08841716,0.000142,53.2176,224.4821,78.3475,281.7677,0.00030779,4.614e-05,0.0,0 STARLINK-4797,1 53852U 22114AL  23296.95042657  .00004614  00000-0  30779-3 0  9997,2 53852  53.2176 224.4821 0001420  78.3475 281.7677 15.08841716 62044,6917.875,95.437,540.722,538.758,0.0
53852.0,STARLINK-4797,PAYLOAD,2023-10-24 01:59:22,15.08849936,0.000162,53.2167,223.8883,84.3508,275.7669,0.00057949,8.949e-05,0.0,0 STARLINK-4797,1 53852U 22114AL  23297.08290505  .00008949  00000-0  57949-3 0  9992,2 53852  53.2167 223.8883 0001620  84.3508 275.7669 15.08849936 61529,6917.85,95.437,540.836,538.594,0.0
53852.0,STARLINK-4797,PAYLOAD,2023-10-24 05:10:09,15.0885707,0.0001523,53.2167,223.293,82.9259,277.1907,0.00072558,0.00011284,0.0,0 STARLINK-4797,1 53852U 22114AL  23297.21538279  .00011284  00000-0  72558-3 0  9999,2 53852  53.2167 223.2930 0001523  82.9259 277.1907 15.08857070 62086,6917.828,95.436,540.747,538.64,0.0
53852.0,STARLINK-4797,PAYLOAD,2023-10-25 05:00:55,15.08863891,0.0001418,53.2172,218.8337,85.1496,274.9658,0.0012248,0.00019271,0.0,0 STARLINK-4797,1 53852U 22114AL  23298.20897906  .00019271  00000-0  12248-2 0  9997,2 53852  53.2172 218.8337 0001418  85.1496 274.9658 15.08863891 61696,6917.807,95.436,540.653,538.691,0.0
53852.0,STARLINK-4797,PAYLOAD,2023-10-25 22:30:10,15.08841617,0.0001552,53.2177,215.5619,95.0206,265.0963,0.00065418,0.00010139,0.0,0 STARLINK-4797,1 53852U 22114AL  23298.93762263  .00010139  00000-0  65418-3 0  9996,2 53852  53.2177 215.5619 0001552  95.0206 265.0963 15.08841617 62341,6917.875,95.437,540.814,538.667,0.0
53852.0,STARLINK-4797,PAYLOAD,2023-10-26 03:16:20,15.08841642,0.0001431,53.2168,214.6693,77.3101,282.8052,0.00028678,4.279e-05,0.0,0 STARLINK-4797,1 53852U 22114AL  23299.13634307  .00004279  00000-0  28678-3 0  9991,2 53852  53.2168 214.6693 0001431  77.3101 282.8052 15.08841642 61833,6917.875,95.437,540.73,538.75,0.0
53852.0,STARLINK-4797,PAYLOAD,2023-10-27 11:04:02,15.08850823,0.0001434,53.2166,208.7235,96.8349,263.2807,0.00026071,3.865e-05,0.0,0 STARLINK-4797,1 53852U 22114AL  23300.46113766  .00003865  00000-0  26071-3 0  9996,2 53852  53.2166 208.7235 0001434  96.8349 263.2807 15.08850823 62035,6917.847,95.437,540.704,538.72,0.0
53852.0,STARLINK-4797,PAYLOAD,2023-10-27 17:25:35,15.08838366,0.0001905,53.2167,207.5347,93.0476,267.0734,-0.00012461,-2.271e-05,0.0,0 STARLINK-4797,1 53852U 22114AL  23300.72610173 -.00002271  00000-0 -12461-3 0  9999,2 53852  53.2167 207.5347 0001905  93.0476 267.0734 15.08838366 62073,6917.885,95.438,541.068,538.433,0.0
53852.0,STARLINK-4797,PAYLOAD,2023-10-27 22:11:44,15.08835987,0.0001599,53.2167,206.6428,98.0429,262.0745,-7.4165e-05,-1.468e-05,0.0,0 STARLINK-4797,1 53852U 22114AL  23300.92482241 -.00001468  00000-0 -74165-4 0  9991,2 53852  53.2167 206.6428 0001599  98.0429 262.0745 15.08835987 62641,6917.893,95.438,540.864,538.651,0.0
53852.0,STARLINK-4797,PAYLOAD,2023-10-28 10:54:50,15.08827043,0.0001543,53.2154,204.2632,99.0533,261.0634,0.00029855,4.465e-05,0.0,0 STARLINK-4797,1 53852U 22114AL  23301.45474911  .00004465  00000-0  29855-3 0  9998,2 53852  53.2154 204.2632 0001543  99.0533 261.0634 15.08827043 62183,6917.92,95.438,540.852,538.718,0.0
53852.0,STARLINK-4797,PAYLOAD,2023-10-28 22:02:32,15.08833237,0.0001572,53.2157,202.183,95.3269,264.7902,0.00036398,5.508e-05,0.0,0 STARLINK-4797,1 53852U 22114AL  23301.91843256  .00005508  00000-0  36398-3 0  9990,2 53852  53.2157 202.1830 0001572  95.3269 264.7902 15.08833237 62797,6917.901,95.438,540.854,538.679,0.0
53852.0,STARLINK-4797,PAYLOAD,2023-10-29 10:45:37,15.08842574,0.0001551,53.2163,199.8029,101.5383,258.5784,0.00066238,0.0001027,0.0,0 STARLINK-4797,1 53852U 22114AL  23302.44835328  .00010270  00000-0  66238-3 0  9998,2 53852  53.2163 199.8029 0001551 101.5383 258.5784 15.08842574 62872,6917.873,95.437,540.81,538.665,0.0
53852.0,STARLINK-4797,PAYLOAD,2023-10-29 21:53:19,15.0885127,0.0001571,53.2166,197.7226,93.9514,266.1658,0.00063252,9.796e-05,0.0,0 STARLINK-4797,1 53852U 22114AL  23302.91203126  .00009796  00000-0  63252-3 0  9999,2 53852  53.2166 197.7226 0001571  93.9514 266.1658 15.08851270 62949,6917.846,95.437,540.798,538.624,0.0
53852.0,STARLINK-4797,PAYLOAD,2023-10-30 02:39:28,15.0886052,0.0001556,53.2161,196.8285,100.8891,259.2276,0.00080362,0.00012532,0.0,0 STARLINK-4797,1 53852U 22114AL  23303.11074735  .00012532  00000-0  80362-3 0  9997,2 53852  53.2161 196.8285 0001556 100.8891 259.2276 15.08860520 62439,6917.818,95.436,540.759,538.606,0.0
53852.0,STARLINK-4797,PAYLOAD,2023-10-30 10:36:24,15.08837305,0.0001812,53.2167,195.3447,82.0853,278.0344,7.6588e-08,-2.87e-06,0.0,0 STARLINK-4797,1 53852U 22114AL  23303.44195280 -.00000287  00000-0  76588-7 0  9996,2 53852  53.2167 195.3447 0001812  82.0853 278.0344 15.08837305 62488,6917.889,95.438,541.007,538.5,0.0
53852.0,STARLINK-4797,PAYLOAD,2023-10-30 21:44:06,15.0883993,0.0001654,53.2151,193.2622,91.0122,269.1059,0.0001919,2.767e-05,0.0,0 STARLINK-4797,1 53852U 22114AL  23303.90563440  .00002767  00000-0  19190-3 0  9990,2 53852  53.2151 193.2622 0001654  91.0122 269.1059 15.08839930 63094,6917.881,95.438,540.89,538.601,0.0
53852.0,STARLINK-4797,PAYLOAD,2023-10-31 02:30:16,15.08838481,0.0001635,53.2167,192.3692,90.0763,270.0417,0.00019752,2.857e-05,0.0,0 STARLINK-4797,1 53852U 22114AL  23304.10435503  .00002857  00000-0  19752-3 0  9995,2 53852  53.2167 192.3692 0001635  90.0763 270.0417 15.08838481 63120,6917.885,95.438,540.881,538.619,0.0
